NORAD_CAT_ID,OBJECT_NAME,OBJECT_TYPE,EPOCH,MEAN_MOTION,ECCENTRICITY,INCLINATION,RA_OF_ASC_NODE,ARG_OF_PERICENTER,MEAN_ANOMALY,BSTAR,MEAN_MOTION_DOT,MEAN_MOTION_DDOT,TLE_LINE0,TLE_LINE1,TLE_LINE2,SEMIMAJOR_AXIS,PERIOD,APOGEE,PERIGEE,DECAYED
56455.0,STARLINK-5987,PAYLOAD,2024-08-13 04:48:20,14.98349791,0.0002716,70.0013,150.3978,265.4467,94.6382,0.00021767,2.506e-05,0.0,0 STARLINK-5987,1 56455U 23064H   24226.20023912  .00002506  00000-0  21767-3 0  9994,2 56455  70.0013 150.3978 0002716 265.4467  94.6382 14.98349791 69700,6950.132,96.106,573.884,570.109,0.0
56455.0,STARLINK-5987,PAYLOAD,2024-08-13 12:49:04,14.98304195,0.0001857,70.0021,149.5539,280.3629,79.7321,-0.0002297,-2.83e-05,0.0,0 STARLINK-5987,1 56455U 23064H   24226.53408377 -.00002830  00000-0 -22970-3 0  9991,2 56455  70.0021 149.5539 0001857 280.3629  79.7321 14.98304195 69754,6950.273,96.109,573.428,570.847,0.0
56455.0,STARLINK-5987,PAYLOAD,2024-08-13 22:25:55,14.982839,0.000263,70.0025,148.549,284.678,75.4087,-0.00046359,-5.613e-05,0.0,0 STARLINK-5987,1 56455U 23064H   24226.93466681 -.00005613  00000-0 -46359-3 0  9996,2 56455  70.0025 148.5490 0002630 284.6780  75.4087 14.98283900 69457,6950.335,96.11,574.028,570.373,0.0
56455.0,STARLINK-5987,PAYLOAD,2024-08-14 04:50:27,14.98291627,0.0002561,70.0013,147.8726,274.6914,85.3952,-0.00044217,-5.359e-05,0.0,0 STARLINK-5987,1 56455U 23064H   24227.20170733 -.00005359  00000-0 -44217-3 0  9995,2 56455  70.0013 147.8726 0002561 274.6914  85.3952 14.98291627 69859,6950.312,96.109,573.957,570.397,0.0
56455.0,STARLINK-5987,PAYLOAD,2024-08-14 19:15:37,14.98326668,0.0002909,70.0013,146.3588,272.2737,87.8089,-0.00011773,-1.497e-05,0.0,0 STARLINK-5987,1 56455U 23064H   24227.80252257 -.00001497  00000-0 -11773-3 0  9993,2 56455  70.0013 146.3588 0002909 272.2737  87.8089 14.98326668 69944,6950.203,96.107,574.09,570.046,0.0
56455.0,STARLINK-5987,PAYLOAD,2024-08-14 22:27:53,14.98327143,0.0002226,70.002,146.02,269.4783,90.6121,2.5448e-05,2.11e-06,0.0,0 STARLINK-5987,1 56455U 23064H   24227.93603991  .00000211  00000-0  25448-4 0  9998,2 56455  70.0020 146.0200 0002226 269.4783  90.6121 14.98327143 69602,6950.202,96.107,573.614,570.52,0.0
56455.0,STARLINK-5987,PAYLOAD,2024-08-15 04:52:24,14.98350263,0.0002658,70.0009,145.349,272.4624,87.623,0.0001714,1.954e-05,0.0,0 STARLINK-5987,1 56455U 23064H   24228.20306110  .00001954  00000-0  17140-3 0  9996,2 56455  70.0009 145.3490 0002658 272.4624  87.6230 14.98350263 70001,6950.13,96.106,573.843,570.148,0.0
56455.0,STARLINK-5987,PAYLOAD,2024-08-15 11:16:56,14.98366001,0.0002596,70.0014,144.6757,274.8469,85.2393,-0.00026279,-3.23e-05,0.0,0 STARLINK-5987,1 56455U 23064H   24228.47009603 -.00003230  00000-0 -26279-3 0  9996,2 56455  70.0014 144.6757 0002596 274.8469  85.2393 14.98366001 69682,6950.082,96.105,573.751,570.142,0.0
56455.0,STARLINK-5987,PAYLOAD,2024-08-15 22:29:54,14.98321527,0.0002538,70.0014,143.497,277.4949,82.5921,0.00063391,7.477e-05,0.0,0 STARLINK-5987,1 56455U 23064H   24228.93743072  .00007477  00000-0  63391-3 0  9993,2 56455  70.0014 143.4970 0002538 277.4949  82.5921 14.98321527 69753,6950.219,96.108,573.848,570.32,0.0
56455.0,STARLINK-5987,PAYLOAD,2024-08-16 04:54:26,14.98327169,0.0002531,70.002,142.8247,283.9322,76.1556,0.00070415,8.318e-05,0.0,0 STARLINK-5987,1 56455U 23064H   24229.20446790  .00008318  00000-0  70415-3 0  9991,2 56455  70.0020 142.8247 0002531 283.9322  76.1556 14.98327169 70157,6950.202,96.107,573.826,570.308,0.0
56455.0,STARLINK-5987,PAYLOAD,2024-08-17 04:56:26,14.9834732,0.0002647,70.0009,140.3001,257.9788,102.1075,-6.0708e-05,-8.18e-06,0.0,0 STARLINK-5987,1 56455U 23064H   24230.20586438 -.00000818  00000-0 -60708-4 0  9991,2 56455  70.0009 140.3001 0002647 257.9788 102.1075 14.98347320 70304,6950.139,96.106,573.844,570.165,0.0
56455.0,STARLINK-5987,PAYLOAD,2024-08-18 03:22:19,14.983454,0.0002203,70.0029,137.9446,229.6255,130.4712,-0.00027175,-3.335e-05,0.0,0 STARLINK-5987,1 56455U 23064H   24231.14050461 -.00003335  00000-0 -27175-3 0  9994,2 56455  70.0029 137.9446 0002203 229.6255 130.4712 14.98345400 70448,6950.145,96.106,573.541,570.479,0.0
56455.0,STARLINK-5987,PAYLOAD,2024-08-18 22:35:55,14.98333876,0.0002598,70.0017,135.924,238.7879,121.3025,0.00010626,1.175e-05,0.0,0 STARLINK-5987,1 56455U 23064H   24231.94161802  .00001175  00000-0  10626-3 0  9995,2 56455  70.0017 135.9240 0002598 238.7879 121.3025 14.98333876 70209,6950.181,96.107,573.852,570.24,0.0
56455.0,STARLINK-5987,PAYLOAD,2024-08-19 03:24:19,14.98334256,0.0002589,70.0017,135.419,241.8297,118.2601,9.9403e-05,1.093e-05,0.0,0 STARLINK-5987,1 56455U 23064H   24232.14189776  .00001093  00000-0  99403-4 0  9998,2 56455  70.0017 135.4190 0002589 241.8297 118.2601 14.98334256 70597,6950.18,96.107,573.844,570.245,0.0
56455.0,STARLINK-5987,PAYLOAD,2024-08-19 11:25:00,14.9833474,0.0002855,70.0006,134.575,272.0,88.0832,2.0648e-05,1.53e-06,0.0,0 STARLINK-5987,1 56455U 23064H   24232.47569878  .00000153  00000-0  20648-4 0  9990,2 56455  70.0006 134.5750 0002855 272.0000  88.0832 14.98334740 70285,6950.178,96.107,574.028,570.059,0.0
56455.0,STARLINK-5987,PAYLOAD,2024-08-19 21:01:49,14.98324999,0.0002384,70.0019,133.5659,276.3567,83.7321,3.1161e-05,2.79e-06,0.0,0 STARLINK-5987,1 56455U 23064H   24232.87626796  .00000279  00000-0  31161-4 0  9998,2 56455  70.0019 133.5659 0002384 276.3567  83.7321 14.98324999 70705,6950.208,96.107,573.73,570.416,0.0
56455.0,STARLINK-5987,PAYLOAD,2024-08-20 03:26:21,14.9832601,0.0002543,70.0014,132.8926,272.6532,87.4336,-5.8554e-05,-7.91e-06,0.0,0 STARLINK-5987,1 56455U 23064H   24233.14330991 -.00000791  00000-0 -58554-4 0  9994,2 56455  70.0014 132.8926 0002543 272.6532  87.4336 14.98326010 70384,6950.205,96.107,573.838,570.303,0.0
56455.0,STARLINK-5987,PAYLOAD,2024-08-20 21:03:49,14.98338826,0.0003056,70.0002,131.0412,267.3368,92.7441,2.8754e-05,2.5e-06,0.0,0 STARLINK-5987,1 56455U 23064H   24233.87765789  .00000250  00000-0  28754-4 0  9998,2 56455  70.0002 131.0412 0003056 267.3368  92.7441 14.98338826 70856,6950.166,96.106,574.155,569.907,0.0
56455.0,STARLINK-5987,PAYLOAD,2024-08-21 03:28:22,14.98291569,0.0002471,70.0008,130.3679,272.9315,87.1561,0.0010373,0.00012293,0.0,0 STARLINK-5987,1 56455U 23064H   24234.14470711  .00012293  00000-0  10373-2 0  9993,2 56455  70.0008 130.3679 0002471 272.9315  87.1561 14.98291569 70890,6950.312,96.109,573.894,570.459,0.0
56455.0,STARLINK-5987,PAYLOAD,2024-08-21 21:05:51,14.98322441,0.0002746,70.0012,128.5186,256.502,103.5833,5.2078e-05,5.28e-06,0.0,0 STARLINK-5987,1 56455U 23064H   24234.87906598  .00000528  00000-0  52078-4 0  9998,2 56455  70.0012 128.5186 0002746 256.5020 103.5833 14.98322441 71006,6950.216,96.107,573.99,570.173,0.0
